[Satellite]
VERSION=1.1
NAME=DELTA 2 R/B
NICKNAME=DELTA 2 R/B
TLE1=1 25876U 99041E   20157.76523716 -.00000165  00000-0  11554-4 0  9996
TLE2=2 25876  51.7683 356.4926 0530538 310.1055  45.4499 14.04430336 67000
STATUS=0
